NORAD_CAT_ID,OBJECT_NAME,OBJECT_TYPE,EPOCH,MEAN_MOTION,ECCENTRICITY,INCLINATION,RA_OF_ASC_NODE,ARG_OF_PERICENTER,MEAN_ANOMALY,BSTAR,MEAN_MOTION_DOT,MEAN_MOTION_DDOT,TLE_LINE0,TLE_LINE1,TLE_LINE2,SEMIMAJOR_AXIS,PERIOD,APOGEE,PERIGEE,DECAYED
51805.0,STARLINK-3605,PAYLOAD,2022-10-15 17:49:38,15.08841395,0.000165,53.2172,139.9426,45.0608,315.0517,0.00017579,2.511e-05,0.0,0 STARLINK-3605,1 51805U 22017AP  22288.74281170  .00002511  00000-0  17579-3 0  9994,2 51805  53.2172 139.9426 0001650  45.0608 315.0517 15.08841395 36904,6917.876,95.437,540.883,538.6,0.0
51805.0,STARLINK-3605,PAYLOAD,2022-10-16 01:46:32,15.08935151,0.0001512,53.216,138.4551,38.5462,321.5638,-0.0012394,-0.0002000999999999,0.0,0 STARLINK-3605,1 51805U 22017AP  22289.07399058 -.00020010  00000-0 -12394-2 0  9991,2 51805  53.2160 138.4551 0001512  38.5462 321.5638 15.08935151 36951,6917.59,95.432,540.501,538.409,0.0
51805.0,STARLINK-3605,PAYLOAD,2022-10-16 06:32:44,15.08839502,0.0001971,53.216,137.5631,50.3336,309.783,6.4524e-05,7.39e-06,0.0,0 STARLINK-3605,1 51805U 22017AP  22289.27273419  .00000739  00000-0  64524-4 0  9993,2 51805  53.2160 137.5631 0001971  50.3336 309.7830 15.08839502 36989,6917.882,95.438,541.11,538.383,0.0
51805.0,STARLINK-3605,PAYLOAD,2022-10-16 17:40:27,15.08824316,0.0001875999999999,53.2167,135.4826,46.3203,313.7944,-9.0463e-05,-1.727e-05,0.0,0 STARLINK-3605,1 51805U 22017AP  22289.73643122 -.00001727  00000-0 -90463-4 0  9997,2 51805  53.2167 135.4826 0001876  46.3203 313.7944 15.08824316 37058,6917.928000000001,95.439,541.091,538.496,0.0
51805.0,STARLINK-3605,PAYLOAD,2022-10-16 20:51:13,15.0882679,0.0001814,53.2163,134.8877,49.672,310.443,-7.0981e-05,-1.417e-05,0.0,0 STARLINK-3605,1 51805U 22017AP  22289.86890988 -.00001417  00000-0 -70981-4 0  9994,2 51805  53.2163 134.8877 0001814  49.6720 310.4430 15.08826790 37079,6917.920999999999,95.438,541.0409999999998,538.531,0.0
51805.0,STARLINK-3605,PAYLOAD,2022-10-17 01:37:23,15.08831688,0.0001810999999999,53.2159,133.9949,48.4387,311.676,-7.5972e-05,-1.497e-05,0.0,0 STARLINK-3605,1 51805U 22017AP  22290.06762800 -.00001497  00000-0 -75972-4 0  9992,2 51805  53.2159 133.9949 0001811  48.4387 311.6760 15.08831688 37102,6917.906,95.438,541.024,538.518,0.0
51805.0,STARLINK-3605,PAYLOAD,2022-10-17 06:23:32,15.08834342,0.0001798,53.216,133.1028,47.5555,312.5589,-6.9256e-05,-1.39e-05,0.0,0 STARLINK-3605,1 51805U 22017AP  22290.26634692 -.00001390  00000-0 -69256-4 0  9991,2 51805  53.2160 133.1028 0001798  47.5555 312.5589 15.08834342 37137,6917.898,95.438,541.007,538.519,0.0
51805.0,STARLINK-3605,PAYLOAD,2022-10-17 17:31:14,15.08836529,0.0001819,53.2162,131.0209,46.3995,313.7148,5.9199e-06,-1.94e-06,0.0,0 STARLINK-3605,1 51805U 22017AP  22290.73002452 -.00000194  00000-0  59199-5 0  9992,2 51805  53.2162 131.0209 0001819  46.3995 313.7148 15.08836529 37207,6917.891,95.438,541.014,538.498,0.0
51805.0,STARLINK-3605,PAYLOAD,2022-10-17 20:42:00,15.08838148,0.0001798,53.2162,130.4262,48.8091,311.3056,2.5077e-05,1.11e-06,0.0,0 STARLINK-3605,1 51805U 22017AP  22290.86250339  .00000111  00000-0  25077-4 0  9990,2 51805  53.2162 130.4262 0001798  48.8091 311.3056 15.08838148 37222,6917.886,95.438,540.995,538.507,0.0
51805.0,STARLINK-3605,PAYLOAD,2022-10-17 23:52:46,15.08844353,0.0002346,53.2163,129.8314,84.2966,275.8294,-3.4141e-05,-8.32e-06,0.0,0 STARLINK-3605,1 51805U 22017AP  22290.99498122 -.00000832  00000-0 -34141-4 0  9992,2 51805  53.2163 129.8314 0002346  84.2966 275.8294 15.08844353 37243,6917.8669999999975,95.437,541.355,538.109,0.0
51805.0,STARLINK-3605,PAYLOAD,2022-10-18 12:35:51,15.08834584,0.0001781,53.2162,127.4523,45.6795,314.4343,0.00022264,3.257e-05,0.0,0 STARLINK-3605,1 51805U 22017AP  22291.52490301  .00003257  00000-0  22264-3 0  9997,2 51805  53.2162 127.4523 0001781  45.6795 314.4343 15.08834584 37320,6917.897,95.438,540.994,538.53,0.0
51805.0,STARLINK-3605,PAYLOAD,2022-10-18 23:43:34,15.08832584,0.0001806,53.2161,125.3704,44.2158,315.8978,0.00013417,1.847e-05,0.0,0 STARLINK-3605,1 51805U 22017AP  22291.98858985  .00001847  00000-0  13417-3 0  9996,2 51805  53.2161 125.3704 0001806  44.2158 315.8978 15.08832584 37397,6917.903,95.438,541.0169999999998,538.519,0.0
51805.0,STARLINK-3605,PAYLOAD,2022-10-19 12:26:39,15.08835957,0.0001858,53.2162,122.9913,44.6455,315.4686,0.00010379,1.364e-05,0.0,0 STARLINK-3605,1 51805U 22017AP  22292.51851064  .00001364  00000-0  10379-3 0  9995,2 51805  53.2162 122.9913 0001858  44.6455 315.4686 15.08835957 37472,6917.893,95.438,541.043,538.472,0.0
51805.0,STARLINK-3605,PAYLOAD,2022-10-19 15:37:25,15.08839375,0.0001844,53.2161,122.3967,45.2417,314.8725,0.00011656,1.567e-05,0.0,0 STARLINK-3605,1 51805U 22017AP  22292.65098822  .00001567  00000-0  11656-3 0  9999,2 51805  53.2161 122.3967 0001844  45.2417 314.8725 15.08839375 37491,6917.882,95.438,541.023,538.472,0.0
51805.0,STARLINK-3605,PAYLOAD,2022-10-20 01:09:43,15.08846071,0.0001846,53.2161,120.6122,45.4661,314.6482,0.0001017,1.331e-05,0.0,0 STARLINK-3605,1 51805U 22017AP  22293.04842342  .00001331  00000-0  10170-3 0  9996,2 51805  53.2161 120.6122 0001846  45.4661 314.6482 15.08846071 37556,6917.861999999999,95.437,541.004,538.45,0.0
51805.0,STARLINK-3605,PAYLOAD,2022-10-20 12:17:25,15.08846373,0.0002262,53.2141,118.5314,51.354,308.7654,4.4681e-05,4.23e-06,0.0,0 STARLINK-3605,1 51805U 22017AP  22293.51210417  .00000423  00000-0  44681-4 0  9996,2 51805  53.2141 118.5314 0002262  51.3540 308.7654 15.08846373 37626,6917.861,95.437,541.2909999999998,538.161,0.0
51805.0,STARLINK-3605,PAYLOAD,2022-10-20 18:38:58,15.08837311,0.0001976999999999,53.2159,117.3418,50.0528,310.0638,5.952e-05,6.59e-06,0.0,0 STARLINK-3605,1 51805U 22017AP  22293.77706936  .00000659  00000-0  59520-4 0  9999,2 51805  53.2159 117.3418 0001977  50.0528 310.0638 15.08837311 37665,6917.889,95.438,541.121,538.386,0.0
51805.0,STARLINK-3605,PAYLOAD,2022-10-21 12:08:13,15.08840788,0.0001636,53.2151,114.0683,52.957,307.1571,8.673e-05,1.093e-05,0.0,0 STARLINK-3605,1 51805U 22017AP  22294.50570605  .00001093  00000-0  86730-4 0  9999,2 51805  53.2151 114.0683 0001636  52.9570 307.1571 15.08840788 37772,6917.878000000002,95.438,540.875,538.611,0.0
51805.0,STARLINK-3605,PAYLOAD,2022-10-21 18:29:45,15.08845884,0.0001827,53.2152,112.8799,45.0416,315.0724,5.8843e-05,6.49e-06,0.0,0 STARLINK-3605,1 51805U 22017AP  22294.77066449  .00000649  00000-0  58843-4 0  9994,2 51805  53.2152 112.8799 0001827  45.0416 315.0724 15.08845884 37816,6917.861999999999,95.437,540.991,538.464,0.0
51805.0,STARLINK-3605,PAYLOAD,2022-10-22 18:20:33,15.08828656,0.0001749,53.2168,108.4207,45.7678,314.3458,0.00021607,3.151e-05,0.0,0 STARLINK-3605,1 51805U 22017AP  22295.76427304  .00003151  00000-0  21607-3 0  9993,2 51805  53.2168 108.4207 0001749  45.7678 314.3458 15.08828656 37968,6917.915,95.438,540.99,538.57,0.0
51805.0,STARLINK-3605,PAYLOAD,2022-10-22 21:31:19,15.0883794,0.0001816,53.2169,107.8261,43.4492,316.6643,8.6918e-05,1.095e-05,0.0,0 STARLINK-3605,1 51805U 22017AP  22295.89674920  .00001095  00000-0  86918-4 0  9997,2 51805  53.2169 107.8261 0001816  43.4492 316.6643 15.08837940 37985,6917.887,95.438,541.008,538.495,0.0
51805.0,STARLINK-3605,PAYLOAD,2022-10-23 18:11:19,15.08848155,0.0001846,53.217,103.9603,44.0313,316.0826,0.00012912,1.768e-05,0.0,0 STARLINK-3605,1 51805U 22017AP  22296.75786056  .00001768  00000-0  12912-3 0  9996,2 51805  53.2170 103.9603 0001846  44.0313 316.0826 15.08848155 38119,6917.855,95.437,540.997,538.443,0.0
51805.0,STARLINK-3605,PAYLOAD,2022-10-24 11:40:33,15.0883899,0.0001891,53.2171,100.6891,45.4001,314.7145,9.1754e-05,1.172e-05,0.0,0 STARLINK-3605,1 51805U 22017AP  22297.48650436  .00001172  00000-0  91754-4 0  9990,2 51805  53.2171 100.6891 0001891  45.4001 314.7145 15.08838990 38229,6917.8830000000025,95.438,541.057,538.44,0.0
51805.0,STARLINK-3605,PAYLOAD,2022-10-24 18:02:07,15.08827218,0.000183,53.2167,99.4989,42.8501,317.2634,-2.546300000000001e-05,-6.93e-06,0.0,0 STARLINK-3605,1 51805U 22017AP  22297.75147527 -.00000693  00000-0 -25463-4 0  9995,2 51805  53.2167  99.4989 0001830  42.8501 317.2634 15.08827218 38262,6917.919,95.438,541.05,538.518,0.0
51805.0,STARLINK-3605,PAYLOAD,2022-10-24 19:37:30,15.08824576,0.0001761999999999,53.2169,99.2019,42.989,317.124,-5.6455e-05,-1.186e-05,0.0,0 STARLINK-3605,1 51805U 22017AP  22297.81771792 -.00001186  00000-0 -56455-4 0  9992,2 51805  53.2169  99.2019 0001762  42.9890 317.1240 15.08824576 38279,6917.928000000001,95.439,541.011,538.5740000000002,0.0
51805.0,STARLINK-3605,PAYLOAD,2022-10-25 09:55:59,15.08829423,0.0001797,53.2174,96.5259,41.2061,318.9066,-5.6108e-05,-1.181e-05,0.0,0 STARLINK-3605,1 51805U 22017AP  22298.41387765 -.00001181  00000-0 -56108-4 0  9992,2 51805  53.2174  96.5259 0001797  41.2061 318.9066 15.08829423 38362,6917.913000000001,95.438,541.021,538.535,0.0
51805.0,STARLINK-3605,PAYLOAD,2022-10-25 19:28:17,15.08834628,0.0001813,53.2172,94.7417,41.4315,318.6814,-6.136e-05,-1.264e-05,0.0,0 STARLINK-3605,1 51805U 22017AP  22298.81131622 -.00001264  00000-0 -61360-4 0  9993,2 51805  53.2172  94.7417 0001813  41.4315 318.6814 15.08834628 38427,6917.897,95.438,541.016,538.508,0.0
51805.0,STARLINK-3605,PAYLOAD,2022-10-26 03:25:13,15.08837693,0.0001836,53.2174,93.2549,41.5341,318.579,-4.0679e-05,-9.35e-06,0.0,0 STARLINK-3605,1 51805U 22017AP  22299.14251479 -.00000935  00000-0 -40679-4 0  9997,2 51805  53.2174  93.2549 0001836  41.5341 318.5790 15.08837693 38476,6917.887,95.438,541.023,538.482,0.0
51805.0,STARLINK-3605,PAYLOAD,2022-10-26 19:19:04,15.08834866,0.0001831999999999,53.2172,90.281,39.4748,320.6377,0.00014538,2.026e-05,0.0,0 STARLINK-3605,1 51805U 22017AP  22299.80491357  .00002026  00000-0  14538-3 0  9996,2 51805  53.2172  90.2810 0001832  39.4748 320.6377 15.08834866 38570,6917.896,95.438,541.028,538.494,0.0
